{
"type": "FeatureCollection",
"name": "area",
"crs": { "type": "name", "properties": { "name": "urn:ogc:def:crs:OGC:1.3:CRS84" } },
"features": [
{ "type": "Feature", "properties": { }, "geometry": { "type": "Polygon", "coordinates": [ [ [ 78.028271313121536, 20.021171541482968 ], [ 78.011729182306198, 19.989892348685181 ], [ 78.003658463080839, 19.979881264385593 ], [ 78.002528782921928, 19.982395931944939 ], [ 77.974963484085336, 19.982472623459458 ], [ 77.970558034861611, 19.98024292899996 ], [ 77.972113340433964, 19.989964979771848 ], [ 77.971242481277002, 19.99369636316829 ], [ 77.961569572649722, 19.998062368733454 ], [ 77.976764581353038, 19.999053108434186 ], [ 77.974902110642944, 20.003160841370775 ], [ 77.996690200884672, 20.019492796532802 ], [ 78.013077409200989, 20.020819053578879 ], [ 78.017948577403644, 20.016240975220107 ], [ 78.028271313121536, 20.021171541482968 ] ] ] } }
]
}
