{
"type": "FeatureCollection",
"name": "obstacles",
"crs": { "type": "name", "properties": { "name": "urn:ogc:def:crs:OGC:1.3:CRS84" } },
"features": [
{ "type": "Feature", "properties": { "height_m": 90.582362928576956 }, "geometry": { "type": "Polygon", "coordinates": [ [ [ 77.992979872631182, 19.986871365295983 ], [ 77.992406153227222, 19.985540069872201 ], [ 77.995036200262021, 19.984527084533024 ], [ 77.995609940594633, 19.985858373934111 ], [ 77.992979872631182, 19.986871365295983 ] ] ] } },
{ "type": "Feature", "properties": { "height_m": 195.48915204124103 }, "geometry": { "type": "Polygon", "coordinates": [ [ [ 77.988249080105959, 20.005464650192206 ], [ 77.987436806188256, 20.004684247593946 ], [ 77.988300242804996, 20.003881249968824 ], [ 77.989112518003012, 20.004661648677331 ], [ 77.988249080105959, 20.005464650192206 ] ] ] } },
{ "type": "Feature", "properties": { "height_m": 242.15869859674152 }, "geometry": { "type": "Polygon", "coordinates": [ [ [ 78.000665289393069, 20.016417163874543 ], [ 77.998925150117088, 20.019106867354722 ], [ 77.997866369093884, 20.01849491433499 ], [ 77.999606516674234, 20.015805222572549 ], [ 78.000665289393069, 20.016417163874543 ] ] ] } },
{ "type": "Feature", "properties": { "height_m": 111.24298734077239 }, "geometry": { "type": "Polygon", "coordinates": [ [ [ 78.003735689758827, 20.018342656884958 ], [ 78.003149713302577, 20.021256071392795 ], [ 78.000076461488021, 20.020703846637602 ], [ 78.000662489710919, 20.017790449172129 ], [ 78.003735689758827, 20.018342656884958 ] ] ] } }
]
}
